41550,GSAT0210 (GALILEO 13),2016,844.7,723.0,+,55.26,Active,1,MEO,French Guiana,ESA,Commercial,Navigation (Global or Regional Positioning),Soyuz,1 41550U 16030B   25061.44014600  .00000048  00000+0  00000+0 0  9998,2 41550  55.2575 234.6653 0001137 167.0891 192.8736  1.70473736 54620,1.70473736,0.0001137,MEO
41859,GSAT0207 (GALILEO 15),2016,844.7,723.0,+,55.21,Active,1,MEO,French Guiana,ESA,Commercial,Navigation (Global or Regional Positioning),Ariane,1 41859U 16069A   25062.30548711  .00000017  00000+0  00000+0 0  9999,2 41859  55.2163 114.1299 0004945 298.4206  61.6135  1.70474453 51598,1.70474453,0.0004945,MEO
41860,GSAT0212 (GALILEO 16),2016,844.7,723.0,+,55.21,Active,1,MEO,French Guiana,ESA,Commercial,Navigation (Global or Regional Positioning),Ariane,1 41860U 16069B   25059.22658973  .00000030  00000+0  00000+0 0  9995,2 41860  55.2123 114.2113 0003131 323.0873  36.9851  1.70474740 51570,1.7047474,0.0003131,MEO
41861,GSAT0213 (GALILEO 17),2016,844.7,723.0,+,55.22,Active,1,MEO,French Guiana,ESA,Commercial,Navigation (Global or Regional Positioning),Ariane,1 41861U 16069C   25061.35446799  .00000024  00000+0  00000+0 0  9997,2 41861  55.2157 114.1594 0005152 281.5446  78.4869  1.70474972 51475,1.70474972,0.0005152,MEO
41862,GSAT0214 (GALILEO 18),2016,844.7,723.0,+,55.21,Active,1,MEO,French Guiana,ESA,Commercial,Navigation (Global or Regional Positioning),Ariane,1 41862U 16069D   25057.98049848  .00000026  00000+0  00000+0 0  9998,2 41862  55.2130 114.2462 0004399 281.0682  78.9730  1.70474903 51545,1.70474903,0.0004399,MEO
43055,GSAT0215 (GALILEO 19),2017,844.7,715.0,+,55.24,Active,1,MEO,French Guiana,ESA,Commercial,Navigation (Global or Regional Positioning),Ariane,1 43055U 17079A   25061.99003185  .00000048  00000+0  00000+0 0  9990,2 43055  55.2364 234.4701 0000667  39.0811 320.8831  1.70474269 44953,1.70474269,6.67e-05,MEO
43056,GSAT0216 (GALILEO 20),2017,844.7,715.0,+,55.24,Active,1,MEO,French Guiana,ESA,Commercial,Navigation (Global or Regional Positioning),Ariane,1 43056U 17079B   25060.52178759  .00000049  00000+0  00000+0 0  9990,2 43056  55.2370 234.5106 0001552 327.3134  32.6385  1.70474390 44942,1.7047439,0.0001552,MEO
43057,GSAT0217 (GALILEO 21),2017,844.7,715.0,+,55.23,Active,1,MEO,French Guiana,ESA,Commercial,Navigation (Global or Regional Positioning),Ariane,1 43057U 17079C   25062.50210937  .00000048  00000+0  00000+0 0  9995,2 43057  55.2333 234.4543 0001934 358.5382   1.4211  1.70474342 44962,1.70474342,0.0001934,MEO
43058,GSAT0218 (GALILEO 22),2017,844.7,715.0,+,55.23,Active,1,MEO,French Guiana,ESA,Commercial,Navigation (Global or Regional Positioning),Ariane,1 43058U 17079D   25059.78925065  .00000052  00000+0  00000+0 0  9992,2 43058  55.2347 234.5265 0001729 306.3819  53.5670  1.70474322 44941,1.70474322,0.0001729,MEO
43564,GSAT0221 (GALILEO 25),2018,844.7,715.0,+,57.29,Active,1,MEO,French Guiana,ESA,Commercial,Navigation (Global or Regional Positioning),Ariane,1 43564U 18060A   25062.03718543 -.00000090  00000+0  00000+0 0  9991,2 43564  57.2862 354.4951 0005577 303.4422  56.5121  1.70475213 41147,1.70475213,0.0005577,MEO
43565,GSAT0222 (GALILEO 26),2018,844.7,715.0,+,57.29,Active,1,MEO,French Guiana,ESA,Commercial,Navigation (Global or Regional Positioning),Ariane,1 43565U 18060B   25059.32313957 -.00000082  00000+0  00000+0 0  9991,2 43565  57.2902 354.5708 0004208 282.3447  77.6114  1.70474977 41137,1.70474977,0.0004208,MEO
43566,GSAT0219 (GALILEO 23),2018,844.7,715.0,+,57.29,Active,1,MEO,French Guiana,ESA,Commercial,Navigation (Global or Regional Positioning),Ariane,1 43566U 18060C   25060.13123374 -.00000084  00000+0  00000+0 0  9997,2 43566  57.2893 354.5507 0005051 310.5119  49.4489  1.70475233 41128,1.70475233,0.0005051,MEO
43567,GSAT0220 (GALILEO 24),2018,844.7,715.0,+,57.29,Active,1,MEO,French Guiana,ESA,Commercial,Navigation (Global or Regional Positioning),Ariane,1 43567U 18060D   25062.11176882 -.00000090  00000+0  00000+0 0  9997,2 43567  57.2888 354.4975 0005572 300.6899  59.2630  1.70475060 41141,1.7047506,0.0005572,MEO
